CCSDS_OMM_VERS = 2.0
CREATION_DATE  = 
ORIGINATOR     = 

OBJECT_NAME    = CORAL
OBJECT_ID      = 1998-067YA
CENTER_NAME    = EARTH
REF_FRAME      = TEME
TIME_SYSTEM    = UTC
MEAN_ELEMENT_THEORY = SGP/SGP4

EPOCH          = 2026-03-30T09:07:00.963264
MEAN_MOTION    = 15.57905206
ECCENTRICITY   = .00128804
INCLINATION    = 51.6302
RA_OF_ASC_NODE = 328.0728
ARG_OF_PERICENTER = 250.8406
MEAN_ANOMALY   = 109.1193

EPHEMERIS_TYPE = 0
CLASSIFICATION_TYPE = U
NORAD_CAT_ID   = 67684
ELEMENT_SET_NO = 999
REV_AT_EPOCH   = 801
BSTAR          = .13866653E-2
MEAN_MOTION_DOT = .106857E-2
MEAN_MOTION_DDOT = 0

CCSDS_OMM_VERS = 2.0
CREATION_DATE  = 
ORIGINATOR     = 

OBJECT_NAME    = GXIBA-1
OBJECT_ID      = 1998-067YB
CENTER_NAME    = EARTH
REF_FRAME      = TEME
TIME_SYSTEM    = UTC
MEAN_ELEMENT_THEORY = SGP/SGP4

EPOCH          = 2026-03-30T01:20:14.376480
MEAN_MOTION    = 15.54098207
ECCENTRICITY   = .00120141
INCLINATION    = 51.6323
RA_OF_ASC_NODE = 330.4074
ARG_OF_PERICENTER = 256.8362
MEAN_ANOMALY   = 103.1288

EPHEMERIS_TYPE = 0
CLASSIFICATION_TYPE = U
NORAD_CAT_ID   = 67685
ELEMENT_SET_NO = 999
REV_AT_EPOCH   = 795
BSTAR          = .87009191E-3
MEAN_MOTION_DOT = .57636E-3
MEAN_MOTION_DDOT = 0

CCSDS_OMM_VERS = 2.0
CREATION_DATE  = 
ORIGINATOR     = 

OBJECT_NAME    = UITMSAT-2
OBJECT_ID      = 1998-067YC
CENTER_NAME    = EARTH
REF_FRAME      = TEME
TIME_SYSTEM    = UTC
MEAN_ELEMENT_THEORY = SGP/SGP4

EPOCH          = 2026-03-30T00:58:06.542400
MEAN_MOTION    = 15.55077953
ECCENTRICITY   = .00091679
INCLINATION    = 51.6316
RA_OF_ASC_NODE = 330.3073
ARG_OF_PERICENTER = 228.7087
MEAN_ANOMALY   = 131.3115

EPHEMERIS_TYPE = 0
CLASSIFICATION_TYPE = U
NORAD_CAT_ID   = 67686
ELEMENT_SET_NO = 999
REV_AT_EPOCH   = 795
BSTAR          = .10299327E-2
MEAN_MOTION_DOT = .7085E-3
MEAN_MOTION_DDOT = 0

CCSDS_OMM_VERS = 2.0
CREATION_DATE  = 
ORIGINATOR     = 

OBJECT_NAME    = HMU-SAT2
OBJECT_ID      = 1998-067YD
CENTER_NAME    = EARTH
REF_FRAME      = TEME
TIME_SYSTEM    = UTC
MEAN_ELEMENT_THEORY = SGP/SGP4

EPOCH          = 2026-03-30T09:10:40.875456
MEAN_MOTION    = 15.53872979
ECCENTRICITY   = .00086295
INCLINATION    = 51.6326
RA_OF_ASC_NODE = 328.8427
ARG_OF_PERICENTER = 233.2686
MEAN_ANOMALY   = 126.7513

EPHEMERIS_TYPE = 0
CLASSIFICATION_TYPE = U
NORAD_CAT_ID   = 67687
ELEMENT_SET_NO = 999
REV_AT_EPOCH   = 792
BSTAR          = .83210811E-3
MEAN_MOTION_DOT = .54544E-3
MEAN_MOTION_DDOT = 0

CCSDS_OMM_VERS = 2.0
CREATION_DATE  = 
ORIGINATOR     = 

OBJECT_NAME    = LEOPARD
OBJECT_ID      = 1998-067YE
CENTER_NAME    = EARTH
REF_FRAME      = TEME
TIME_SYSTEM    = UTC
MEAN_ELEMENT_THEORY = SGP/SGP4

EPOCH          = 2026-03-30T08:51:01.270080
MEAN_MOTION    = 15.54667702
ECCENTRICITY   = .00088317
INCLINATION    = 51.6321
RA_OF_ASC_NODE = 328.7513
ARG_OF_PERICENTER = 230.5203
MEAN_ANOMALY   = 129.5007

EPHEMERIS_TYPE = 0
CLASSIFICATION_TYPE = U
NORAD_CAT_ID   = 67688
ELEMENT_SET_NO = 999
REV_AT_EPOCH   = 792
BSTAR          = .9278276E-3
MEAN_MOTION_DOT = .62747E-3
MEAN_MOTION_DDOT = 0

CCSDS_OMM_VERS = 2.0
CREATION_DATE  = 
ORIGINATOR     = 

OBJECT_NAME    = CREW DRAGON 12
OBJECT_ID      = 2026-031A
CENTER_NAME    = EARTH
REF_FRAME      = TEME
TIME_SYSTEM    = UTC
MEAN_ELEMENT_THEORY = SGP/SGP4

EPOCH          = 2026-03-30T08:36:35.879904
MEAN_MOTION    = 15.48652900
ECCENTRICITY   = .00062124
INCLINATION    = 51.6343
RA_OF_ASC_NODE = 330.1789
ARG_OF_PERICENTER = 250.3608
MEAN_ANOMALY   = 109.6710

EPHEMERIS_TYPE = 0
CLASSIFICATION_TYPE = U
NORAD_CAT_ID   = 67796
ELEMENT_SET_NO = 999
REV_AT_EPOCH   = 55949
BSTAR          = .22375818E-3
MEAN_MOTION_DOT = .11753E-3
MEAN_MOTION_DDOT = 0

CCSDS_OMM_VERS = 2.0
CREATION_DATE  = 
ORIGINATOR     = 

OBJECT_NAME    = PROGRESS-MS 33
OBJECT_ID      = 2026-058A
CENTER_NAME    = EARTH
REF_FRAME      = TEME
TIME_SYSTEM    = UTC
MEAN_ELEMENT_THEORY = SGP/SGP4

EPOCH          = 2026-03-30T08:36:35.879904
MEAN_MOTION    = 15.48652900
ECCENTRICITY   = .00062124
INCLINATION    = 51.6343
RA_OF_ASC_NODE = 330.1789
ARG_OF_PERICENTER = 250.3608
MEAN_ANOMALY   = 109.6710

EPHEMERIS_TYPE = 0
CLASSIFICATION_TYPE = U
NORAD_CAT_ID   = 68319
ELEMENT_SET_NO = 999
REV_AT_EPOCH   = 70
BSTAR          = .22375818E-3
MEAN_MOTION_DOT = .11753E-3
MEAN_MOTION_DDOT = 0

